{ "type": "FeatureCollection", "features": [{"type":"Feature","geometry":{"type":"Point","coordinates":[70.4680319968611,21.50601102743464]},"properties":{"@id":5037460625,"@type":"node","@version":1,"@changeset":51149149,"@uid":6486631,"@user":"Dr Jayesh Dabhi","@timestamp":1502823030,"name":"Volunteering Opportunities","name:en":"Volunteering Opportunities","office":"ngo"}},{"type":"Feature","geometry":{"type":"Point","coordinates":[72.81610147096217,19.0108349723464]},"properties":{"@id":4084947093,"@type":"node","@version":1,"@changeset":38143735,"@uid":223444,"@user":"OMNIBUS","@timestamp":1459255523,"name":"Blind service asociation","office":"ngo"}},{"type":"Feature","geometry":{"type":"Point","coordinates":[72.88217886351049,19.285907838625604]},"properties":{"@id":5251291621,"@type":"node","@version":1,"@changeset":54136048,"@uid":6156643,"@user":"Vicky Sawant","@timestamp":1511827189,"addr:housenumber":"22","addr:postcode":"401107","addr:street":"Shanti Vidya Nagri Road","name:en":"Aadhar Cc","office":"ngo"}},{"type":"Feature","geometry":{"type":"Point","coordinates":[73.63694426603615,24.632414536361992]},"properties":{"@id":5385183325,"@type":"node","@version":1,"@changeset":56047518,"@uid":7178113,"@user":"Rachel Lou","@timestamp":1517731830,"name:en":"Animal Aid","office":"ngo"}},{"type":"Feature","geometry":{"type":"Polygon","coordinates":[[[74.63754191994667,25.351334264031877],[74.63771425187588,25.35124230689628],[74.63762599043548,25.351128534462063],[74.6374624595046,25.35122844514737],[74.63747578673065,25.35125435070961],[74.63754191994667,25.351334264031877]]]},"properties":{"@id":286667049,"@type":"way","@version":1,"@changeset":22782682,"@uid":2102720,"@user":"kespar","@timestamp":1402086781,"name":"Rashtriya Swayamsevak Sangh, Bhilwara","office":"ngo","name:hi":"राष्ट्रीय स्वयंसेवक संघ, भीलवाड़ा","smoking":"no","addr:city":"Bhilwara","addr:street":"Ashok Nagar","addr:postcode":"311001","addr:housenumber":"10"}},{"type":"Feature","geometry":{"type":"Polygon","coordinates":[[[76.57656563445926,12.408127734889064],[76.57682564109564,12.407457618484372],[76.57676914706826,12.407173641198],[76.5765734296292,12.406976273117834],[76.57622977159917,12.406671011284104],[76.57608107663691,12.406591523630723],[76.57540868036449,12.407580164943255],[76.57656563445926,12.408127734889064]]]},"properties":{"@id":249517411,"@type":"way","@version":1,"@changeset":19230999,"@uid":1822739,"@user":"Vinay1993","@timestamp":1385981507,"name":"Samaja","office":"ngo"}},{"type":"Feature","geometry":{"type":"Point","coordinates":[76.45764788612723,10.001113820219643]},"properties":{"@id":5419557457,"@type":"node","@version":1,"@changeset":56455221,"@uid":7631484,"@user":"Raina Ealu George","@timestamp":1518934758,"name":"Synthite office","office":"ngo"}},{"type":"Feature","geometry":{"type":"Polygon","coordinates":[[[76.6395218577236,12.325417167439838],[76.63961254991591,12.32533077655117],[76.63953619077802,12.325254212090499],[76.63940945640206,12.32537491370067],[76.63944985717535,12.325415365923973],[76.63948589935899,12.325384330716773],[76.6395218577236,12.325417167439838]]]},"properties":{"@id":315928641,"@type":"way","@version":3,"@changeset":34919773,"@uid":145231,"@user":"woodpeck_repair","@timestamp":1446016634,"name":"Mysore Grahakara Parishat","office":"ngo","name:kn":"ಮೈಸೂರು ಗ್ರಾಹಕರ ಪರಿಷತ್","building":"yes","addr:city":"Mysuru","addr:street":"Vivekananda Road","addr:postcode":"570020"}},{"type":"Feature","geometry":{"type":"Point","coordinates":[76.62936173379421,9.744970961969344]},"properties":{"@id":2018319224,"@type":"node","@version":6,"@changeset":43269920,"@uid":249458,"@user":"sk_trav","@timestamp":1477762069,"name":"Y.M.C Palackattumala","is_in":"Palackattumala;Kottayam;Kerala;India","office":"ngo","comment":"not so \"young mens club of palackattumala\"","name:ml":"യങ്ങ്മെന്‍സ് ക്ളബ് പാലക്കാട്ടുമല","addr:city":"Kottayam District","addr:street":"Palackattumala","addr:postcode":"686635","opening_hours":"18:30 - 20:30","addr:housename":"Public Libray Building"}},{"type":"Feature","geometry":{"type":"Point","coordinates":[76.32767382077873,32.207718154801356]},"properties":{"@id":4472250084,"@type":"node","@version":1,"@changeset":43297601,"@uid":2063042,"@user":"SparkOfTheSoul","@timestamp":1477898164,"name":"The Himachal and Punjab Gorkha Association","phone":"9418607458","office":"ngo","website":"hpgabhagsu.org/","addr:city":"Dharamsala","addr:street":"Shyam Nagar Road","addr:postcode":"176215"}},{"type":"Feature","geometry":{"type":"Point","coordinates":[76.3684584852308,32.19819253025942]},"properties":{"@id":2399776563,"@type":"node","@version":3,"@changeset":32689943,"@uid":1306,"@user":"PlaneMad","@timestamp":1437117699,"name":"Jagori Grameen","office":"ngo"}},{"type":"Feature","geometry":{"type":"Point","coordinates":[76.41365286894143,15.555789236375048]},"properties":{"@id":2384936046,"@type":"node","@version":3,"@changeset":36761467,"@uid":136860,"@user":"indigomc","@timestamp":1453567726,"name":"SAMUHA organisation","fixme":"needs street address details","phone":"(91) 080-42136206","office":"ngo","source":"survey","landuse":"commercial","website":"www.samuha.org","addr:city":"kanakagiri","addr:postcode":"584119"}},{"type":"Feature","geometry":{"type":"Polygon","coordinates":[[[76.85858658514917,11.430647063283189],[76.8586334399879,11.430594400957233],[76.85859052464366,11.430560223841852],[76.8586455937475,11.430487926084197],[76.85857459902763,11.43044734074401],[76.85848508030176,11.430534426689533],[76.85851542279124,11.430612804017656],[76.85858658514917,11.430647063283189]]]},"properties":{"@id":389473063,"@type":"way","@version":1,"@changeset":36351791,"@uid":1976117,"@user":"Hargulaf","@timestamp":1451880543,"office":"ngo","building":"yes"}},{"type":"Feature","geometry":{"type":"Polygon","coordinates":[[[76.85916845686734,11.430960079402453],[76.85919343493879,11.430882359421915],[76.85914238914847,11.430863216971005],[76.85910416767001,11.430900844620055],[76.85916845686734,11.430960079402453]]]},"properties":{"@id":389473067,"@type":"way","@version":1,"@changeset":36351791,"@uid":1976117,"@user":"Hargulaf","@timestamp":1451880544,"office":"ngo","building":"yes"}},{"type":"Feature","geometry":{"type":"Polygon","coordinates":[[[76.85921128839254,11.430999514479566],[76.8592449836433,11.430882359421915],[76.85919804498553,11.430867817731851],[76.85919343493879,11.430882359421915],[76.85916845686734,11.430960079402453],[76.85921128839254,11.430999514479566]]]},"properties":{"@id":389473066,"@type":"way","@version":1,"@changeset":36351791,"@uid":1976117,"@user":"Hargulaf","@timestamp":1451880544,"office":"ngo","building":"yes"}},{"type":"Feature","geometry":{"type":"Polygon","coordinates":[[[76.85924624092877,11.431031719788479],[76.85928052291274,11.430956628832945],[76.8592449836433,11.430927627616128],[76.85921128839254,11.430999514479566],[76.85924624092877,11.431031719788479]]]},"properties":{"@id":389473065,"@type":"way","@version":1,"@changeset":36351791,"@uid":1976117,"@user":"Hargulaf","@timestamp":1451880544,"office":"ngo","building":"yes"}},{"type":"Feature","geometry":{"type":"Polygon","coordinates":[[[76.85908681713045,11.430884906271501],[76.85911623761058,11.430852454476565],[76.85904239304364,11.430788208127282],[76.8590129725635,11.430820742086027],[76.85908681713045,11.430884906271501]]]},"properties":{"@id":389473062,"@type":"way","@version":1,"@changeset":36351791,"@uid":1976117,"@user":"Hargulaf","@timestamp":1451880543,"office":"ngo","building":"yes"}},{"type":"Feature","geometry":{"type":"Polygon","coordinates":[[[76.85903308913112,11.430764054125191],[76.85904658399522,11.430674667868232],[76.85896737501025,11.430665466340187],[76.85895262286067,11.43075222359279],[76.85903308913112,11.430764054125191]]]},"properties":{"@id":389473061,"@type":"way","@version":1,"@changeset":36351791,"@uid":1976117,"@user":"Hargulaf","@timestamp":1451880543,"office":"ngo","building":"yes"}},{"type":"Feature","geometry":{"type":"Polygon","coordinates":[[[76.85914842411876,11.43072396176342],[76.85919938609004,11.43066521987069],[76.85910844244063,11.430589635878903],[76.85905756428838,11.430648377787307],[76.85914842411876,11.43072396176342]]]},"properties":{"@id":389473060,"@type":"way","@version":1,"@changeset":36351791,"@uid":1976117,"@user":"Hargulaf","@timestamp":1451880543,"office":"ngo","building":"yes"}},{"type":"Feature","geometry":{"type":"Polygon","coordinates":[[[76.85926342383027,11.43087677278399],[76.85930063948035,11.430755427695374],[76.8592513538897,11.430740968155277],[76.8592272978276,11.430819263269797],[76.8591720610857,11.430802914134347],[76.85915881767869,11.43084596411714],[76.85926342383027,11.43087677278399]]]},"properties":{"@id":389329646,"@type":"way","@version":2,"@changeset":36351819,"@uid":1976117,"@user":"Hargulaf","@timestamp":1451880892,"name":"Keystone Foundation","office":"ngo","source":"Bing","website":"http://keystone-foundation.org/","building":"yes","source_1":"local knowledge","addr:city":"Kotagiri","addr:street":"Groves Hill Road","addr:postcode":"643217"}},{"type":"Feature","geometry":{"type":"Polygon","coordinates":[[[76.85906066559255,11.43053935608188],[76.85909184627235,11.430501153288986],[76.85901557095349,11.430441179001562],[76.85898422263563,11.430479381802556],[76.85906066559255,11.43053935608188]]]},"properties":{"@id":389473069,"@type":"way","@version":1,"@changeset":36351791,"@uid":1976117,"@user":"Hargulaf","@timestamp":1451880544,"office":"ngo","building":"yes"}},{"type":"Feature","geometry":{"type":"Point","coordinates":[76.74545503221452,16.73678271937777]},"properties":{"@id":3374353238,"@type":"node","@version":2,"@changeset":29128975,"@uid":827808,"@user":"yogi_ks","@timestamp":1425021332,"name":"Training Centre","office":"ngo","addr:place":"Gogipet"}},{"type":"Feature","geometry":{"type":"Point","coordinates":[76.62912217900157,12.289187165829347]},"properties":{"@id":1844895968,"@type":"node","@version":5,"@changeset":32383693,"@uid":99939,"@user":"shabharisha","@timestamp":1435917809,"name":"IT for Change","office":"ngo","building":"office","addr:city":"Mysore","addr:street":"Gange Road, 3rd cross","addr:postcode":"570024","addr:housenumber":"1239"}},{"type":"Feature","geometry":{"type":"Point","coordinates":[77.20601026900113,28.550800031758712]},"properties":{"@id":1968359927,"@type":"node","@version":9,"@changeset":51962296,"@uid":339581,"@user":"nyuriks","@timestamp":1505199556,"addr:city":"New Delhi","addr:housenumber":"First Floor, B1/8, Hauz Khas","addr:place":"Hauz Khas","addr:postcode":"110016","building":"office","designation":"Non profit organization","level":"1","name":"Centre for Internet and Society","office":"ngo","short_name":"CIS","smoking":"outside","website":"http://cis-india.org","wheelchair":"no","wikidata":"Q2801619","wikipedia":"en:Centre for Internet and Society (India)"}},{"type":"Feature","geometry":{"type":"Point","coordinates":[77.21347443759441,28.562654935025492]},"properties":{"@id":5091763041,"@type":"node","@version":1,"@changeset":51879813,"@uid":4749148,"@user":"paongquinho","@timestamp":1504963093,"name":"Chetna NGO","name:km":"អង្គការក្រៅរដ្ឋាភិបាល ចេតនា","office":"ngo"}},{"type":"Feature","geometry":{"type":"Point","coordinates":[77.13278437033296,16.7602164030057]},"properties":{"@id":2345159933,"@type":"node","@version":12,"@changeset":50465308,"@uid":827808,"@user":"yogi_ks","@timestamp":1500660767,"name":"Kalike","office":"ngo","name:kn":"ಕಲಿಕೆ","addr:city":"Yadgir","addr:street":"Balaji Temple Road","addr:postcode":"585201","opening_hours":"Mo-Sa 10:00-18:00","addr:housename":"Sri Laxmi Nivas","addr:housenumber":"Kalike"}},{"type":"Feature","geometry":{"type":"Point","coordinates":[77.12949614971876,16.751783225725276]},"properties":{"@id":2952263540,"@type":"node","@version":2,"@changeset":50465724,"@uid":827808,"@user":"yogi_ks","@timestamp":1500661829,"name":"Dhan Foundation","office":"ngo","name:kn":"ಧಾನ್ ಫೌಂಡೇಶನ್","addr:city":"Yadgir"}},{"type":"Feature","geometry":{"type":"Point","coordinates":[77.20539486967027,28.632840746463117]},"properties":{"@id":3991741674,"@type":"node","@version":1,"@changeset":37037667,"@uid":223444,"@user":"OMNIBUS","@timestamp":1454752546,"name":"Comunist party of Indiq","office":"ngo"}},{"type":"Feature","geometry":{"type":"Point","coordinates":[77.48532637953758,12.831810864381879]},"properties":{"@id":3080665938,"@type":"node","@version":2,"@changeset":25807085,"@uid":2373137,"@user":"Abhijit Sinha","@timestamp":1412245045,"name":"E4D Banjarapalya Centre;E4D banjarapalya","office":"ngo","smoking":"no","building":"school","addr:city":"Bangalore"}},{"type":"Feature","geometry":{"type":"Point","coordinates":[77.56235078908503,13.004135433261595]},"properties":{"@id":4350001284,"@type":"node","@version":4,"@changeset":48484637,"@uid":47978,"@user":"Christoph Lotz","@timestamp":1494188660,"name":"Innovation and Science Promotion Foundation","email":"contact@ispf.in","phone":"+9199028 74525","name_1":"ISPF","office":"ngo","smoking":"no","website":"https://ispf.in","addr:city":"Bengaluru","addr:place":"Malleshwaram","addr:street":"11th Main Road","description":"ISPF is a non-profit trust focused on promoting Innovation and Science, especially amongst children. ISPF’s current focus is creating experience-based learning opportunities where science can be learnt using hands-on, interactive experiences.","addr:country":"IN","addr:postcode":"560003","opening_hours":"8:30AM - 6:00PM","addr:housenumber":"16/2"}},{"type":"Feature","geometry":{"type":"Polygon","coordinates":[[[77.58061059750617,12.988529473119215],[77.58075065910816,12.98835207597996],[77.58020893670619,12.987473745920383],[77.5798820424825,12.988183662924826],[77.58061059750617,12.988529473119215]]]},"properties":{"@id":291266074,"@type":"way","@version":3,"@changeset":44266610,"@uid":136860,"@user":"indigomc","@timestamp":1481229369,"name":"Gandhi Bhavan","office":"ngo","landuse":"commercial","name:kn":"ಗಾಂಧಿ ಭವನ"}},{"type":"Feature","geometry":{"type":"Point","coordinates":[77.59713895618916,12.99090553713772]},"properties":{"@id":573421153,"@type":"node","@version":6,"@changeset":55371933,"@uid":1306,"@user":"PlaneMad","@timestamp":1515741625,"level":"4","name":"Janaagraha","name:kn":"ಜನಾಗ್ರಹ","office":"ngo","operator:wikidata":"Q6150612","toilets:wheelchair":"no","website":"http://www.janaagraha.org","wheelchair":"no"}},{"type":"Feature","geometry":{"type":"Point","coordinates":[77.58302508853376,34.16537593465446]},"properties":{"@id":5013716368,"@type":"node","@version":2,"@changeset":50894977,"@uid":154287,"@user":"keithonearth","@timestamp":1502048780,"name":"WWF for nature india","name:en":"WWF for nature india","office":"ngo"}},{"type":"Feature","geometry":{"type":"Point","coordinates":[77.53621098585427,12.969738557375578]},"properties":{"@id":2975331589,"@type":"node","@version":2,"@changeset":36963837,"@uid":3080721,"@user":"Swach Bharat","@timestamp":1454440237,"name":"Kalike","office":"ngo","addr:city":"Bangalore","addr:street":"18th Main","addr:postcode":"560040","opening_hours":"09:00-17:00","addr:housenumber":"#317/85"}},{"type":"Feature","geometry":{"type":"Point","coordinates":[77.60056983679533,12.981744269011017]},"properties":{"@id":2304523794,"@type":"node","@version":2,"@changeset":36546710,"@uid":1306,"@user":"PlaneMad","@timestamp":1452681957,"name":"Alternative Law Forum","office":"ngo","website":"http://altlawforum.org","building":"office","addr:street":"Infantry Road","addr:postcode":"560001","addr:housenumber":"122/4"}},{"type":"Feature","geometry":{"type":"Polygon","coordinates":[[[77.59876403957605,12.973504744378715],[77.59879739955068,12.973311817405616],[77.59891608729959,12.973299647155457],[77.59881382808089,12.972885939975825],[77.59899479337037,12.97285073603598],[77.59895229712129,12.972711880540174],[77.59890594519675,12.972709838547019],[77.59817814454436,12.972822556544571],[77.59828719310462,12.973464721437239],[77.59876403957605,12.973504744378715]]]},"properties":{"@id":328996274,"@type":"way","@version":2,"@changeset":34842327,"@uid":520239,"@user":"Gutsycat","@timestamp":1445698979,"name":"The Churches' Council for Child and Youth Care","office":"ngo","landuse":"commercial","smoking":"no","addr:city":"Bangalore","addr:street":"Lavelle Road","addr:postcode":"560001","opening_hours":"24/7","addr:housenumber":"26"}},{"type":"Feature","geometry":{"type":"Polygon","coordinates":[[[77.58212453685701,12.937860459223359],[77.58223358541727,12.937858825400227],[77.5822288915515,12.937713741863107],[77.58212269283831,12.937715048922371],[77.58212453685701,12.937860459223359]]]},"properties":{"@id":340977673,"@type":"way","@version":4,"@changeset":57066490,"@uid":136860,"@user":"indigomc","@timestamp":1520711450,"alt_name":"Seva House","amenity":"doctors","building":"yes","name":"Aarogya Seva","name:kn":"ಆರೋಗ್ಯ ಸೇವ","office":"ngo","website":"http://www.aarogyaseva.org/"}},{"type":"Feature","geometry":{"type":"Point","coordinates":[77.5890360865742,12.924913136961806]},"properties":{"@id":2360192423,"@type":"node","@version":6,"@changeset":31322272,"@uid":827808,"@user":"yogi_ks","@timestamp":1432144298,"name":"IT for change","phone":"080-26536890, 080-26654134","office":"ngo","website":"www.ITforchange.net","addr:city":"Jayanagar 4th T Block, Bangalore","addr:street":"17 Main","addr:postcode":"5600041","opening_hours":"08:30-17:30","addr:housename":"IT for change","addr:housenumber":"#393"}},{"type":"Feature","geometry":{"type":"Point","coordinates":[77.65713075175881,13.01014933121273]},"properties":{"@id":3426275262,"@type":"node","@version":1,"@changeset":29841709,"@uid":1306,"@user":"PlaneMad","@timestamp":1427694096,"name":"Pratham Books","office":"ngo","addr:housename":"3rd Floor, No. 621"}},{"type":"Feature","geometry":{"type":"Point","coordinates":[77.65712102875113,13.010071665489775]},"properties":{"@id":3426275261,"@type":"node","@version":1,"@changeset":29841709,"@uid":1306,"@user":"PlaneMad","@timestamp":1427694096,"name":"Akshara Foundation","office":"ngo","addr:city":"Bangalore","addr:street":"OMBR","addr:housename":"No. 621"}},{"type":"Feature","geometry":{"type":"Point","coordinates":[77.69480396993458,27.57422535813761]},"properties":{"@id":2564422075,"@type":"node","@version":1,"@changeset":19272068,"@uid":1809552,"@user":"nicktime","@timestamp":1386163797,"name":"Friends of Vrindavan","email":"info@friendsofvrindavan.com","phone":"+91 565 2442771;+91 9412279139","office":"ngo","website":"http://www.friendsofvrindavan.com/"}},{"type":"Feature","geometry":{"type":"Point","coordinates":[78.00251545384526,27.186292438509568]},"properties":{"@id":3103750284,"@type":"node","@version":1,"@changeset":25767200,"@uid":2354635,"@user":"veekesh yadav","@timestamp":1412082083,"office":"ngo"}},{"type":"Feature","geometry":{"type":"Point","coordinates":[77.88900696672499,27.233571945692887]},"properties":{"@id":5432838235,"@type":"node","@version":1,"@changeset":56630500,"@uid":7178113,"@user":"Rachel Lou","@timestamp":1519459679,"name:en":"Wildlife SOS - Volunteers House","office":"ngo"}},{"type":"Feature","geometry":{"type":"Point","coordinates":[77.61670927517116,12.970186330584013]},"properties":{"@id":3805428941,"@type":"node","@version":1,"@changeset":34907446,"@uid":1765920,"@user":"Nagesh_Blr","@timestamp":1445964505,"name":"ActionAid","level":"0","office":"ngo"}},{"type":"Feature","geometry":{"type":"Point","coordinates":[77.63638445176184,12.979008817626209]},"properties":{"@id":4275690250,"@type":"node","@version":1,"@changeset":40417732,"@uid":1306,"@user":"PlaneMad","@timestamp":1467381413,"name":"Amnesty International","office":"ngo","website":"https://www.amnesty.org.in/","addr:street":"13th Cross","addr:housenumber":"235"}},{"type":"Feature","geometry":{"type":"Point","coordinates":[77.6365281175822,12.969662757672054]},"properties":{"@id":4315529536,"@type":"node","@version":1,"@changeset":40946962,"@uid":4007051,"@user":"upendrakarukonda","@timestamp":1469183517,"name":"Plong","office":"ngo"}},{"type":"Feature","geometry":{"type":"Polygon","coordinates":[[[77.63753511942923,12.964798377759834],[77.63768532313406,12.964735400679857],[77.63763939030468,12.964631664080159],[77.63759966008365,12.964549001498881],[77.63745314441621,12.96461336722659],[77.63749161735177,12.964696601562977],[77.63753511942923,12.964798377759834]]]},"properties":{"@id":166560383,"@type":"way","@version":8,"@changeset":37238991,"@uid":218226,"@user":"Pranesh Prakash","@timestamp":1455602583,"name":"Centre for Internet and Society","phone":"+91 80 40926283","office":"ngo","name:en":"Centre for Internet and Society","name:kn":"ಸೆಂಟರ್ ಫಾರ್ ಇಂಟರ್‌ನೆಟ್ ಆಂಡ್ ಸೊಸೈಟಿ","smoking":"outside","website":"http://cis-india.org","addr:city":"Bangalore","wikipedia":"en:Centre for Internet and Society (India)","short_name":"CIS","wheelchair":"limited","addr:street":"2C Cross","addr:postcode":"560071","opening_hours":"09:00-18:00","addr:housenumber":"194"}},{"type":"Feature","geometry":{"type":"Point","coordinates":[77.64763874933124,12.981297251707545]},"properties":{"@id":4472516796,"@type":"node","@version":3,"@changeset":43320992,"@uid":1306,"@user":"PlaneMad","@timestamp":1477989595,"name":"Institute For Cultural Research and Action","office":"ngo","name:en":"Institute For Cultural Research and Action"}},{"type":"Feature","geometry":{"type":"Point","coordinates":[77.64166614040732,12.969495312124423]},"properties":{"@id":3726039619,"@type":"node","@version":3,"@changeset":39071802,"@uid":827808,"@user":"yogi_ks","@timestamp":1462296244,"name":"Asha Foundation Trust","office":"ngo","addr:street":"100 Feet Road(S K Karim Khan Road)"}},{"type":"Feature","geometry":{"type":"Polygon","coordinates":[[[77.6438054535538,12.9705830527259],[77.64380922541022,12.970455059466573],[77.64370151795447,12.970451955608794],[77.64369774609804,12.970579948869712],[77.6438054535538,12.9705830527259]]]},"properties":{"@id":343680931,"@type":"way","@version":2,"@changeset":40949834,"@uid":706170,"@user":"BharataHS","@timestamp":1469192031,"name":"Arghyam - Safe sustainable water for all","office":"ngo","building":"yes","building:levels":"2","addr:housenumber":"599"}},{"type":"Feature","geometry":{"type":"Point","coordinates":[77.63569721952081,12.959240160264613]},"properties":{"@id":2956828447,"@type":"node","@version":3,"@changeset":42777948,"@uid":2376,"@user":"Bman","@timestamp":1476110839,"name":"Ashoka Innovators For The Public","office":"ngo","smoking":"no","addr:city":"Bangalore","addr:postcode":"560071","opening_hours":"09:00-18:00"}},{"type":"Feature","geometry":{"type":"Point","coordinates":[77.68522169440985,12.91579543763433]},"properties":{"@id":2414094392,"@type":"node","@version":3,"@changeset":43944467,"@uid":1306,"@user":"PlaneMad","@timestamp":1480080910,"name":"Azim Premji Foundation","office":"ngo"}},{"type":"Feature","geometry":{"type":"Point","coordinates":[78.30693704076111,30.113146914596754]},"properties":{"@id":2377319203,"@type":"node","@version":1,"@changeset":16865047,"@uid":94270,"@user":"Ivan Garcia","@timestamp":1373225894,"name":"Khushi Charity Society","office":"ngo"}},{"type":"Feature","geometry":{"type":"Point","coordinates":[78.36040377616882,17.43597436700091]},"properties":{"@id":5469029529,"@type":"node","@version":1,"@changeset":57056061,"@uid":2644101,"@user":"Chetan_Gowda","@timestamp":1520681946,"addr:city":"Beside Centre for Good Governance, Greenlands colony, Gachibowli 'X'Roads, Sherilingampally, Rangareddy Dt.,","addr:housenumber":"Sy. No. 91","addr:postcode":"Hyderabad – 500032","addr:street":"Nehru Outer Ring Road","designation":"FSMI","name":"Swecha","name:te":"స్వేచ్ఛ కార్యాలయం","office":"ngo","opening_hours":"24/7","smoking":"no","toilets":"yes","website":"swecha.org","wheelchair":"no"}},{"type":"Feature","geometry":{"type":"Point","coordinates":[78.35741353221238,9.0833761195547]},"properties":{"@id":1065824760,"@type":"node","@version":5,"@changeset":21352457,"@uid":351832,"@user":"treba","@timestamp":1395951982,"name":"People's Action for Development (PAD)","office":"ngo","amenity":"Community Development","landuse":"commercial","website":"padgom.org","addr:city":"Vembar","addr:street":"Roachpalayam","addr:country":"IN","addr:postcode":"628906","addr:housenumber":"4/124"}},{"type":"Feature","geometry":{"type":"Point","coordinates":[79.13901393301785,12.967252837817753]},"properties":{"@id":4693434845,"@type":"node","@version":1,"@changeset":46213318,"@uid":3654516,"@user":"aimomap","@timestamp":1487505264,"name":"Worth trust","office":"ngo"}},{"type":"Feature","geometry":{"type":"Polygon","coordinates":[[[79.81942514888942,11.936315824602502],[79.81941978447139,11.936195028700354],[79.81931517831981,11.93620035913844],[79.81931517831981,11.936315824602502],[79.81942514888942,11.936315824602502]]]},"properties":{"@id":548719427,"@type":"way","@version":1,"@changeset":54866812,"@uid":7137056,"@user":"demonshreder","@timestamp":1514044439,"building":"yes","name":"Pondicherry Cooperative Housing Board","office":"ngo"}},{"type":"Feature","geometry":{"type":"Point","coordinates":[79.82605934143066,11.940662555096552]},"properties":{"@id":5292943852,"@type":"node","@version":1,"@changeset":54749442,"@uid":7137056,"@user":"demonshreder","@timestamp":1513662739,"name":"Andhra Maha Sabha","office":"ngo"}},{"type":"Feature","geometry":{"type":"Point","coordinates":[79.83626648783684,11.947746825986968]},"properties":{"@id":3939266752,"@type":"node","@version":1,"@changeset":36499561,"@uid":3520761,"@user":"sivapydef","@timestamp":1452507014,"name":"CIRC-PYAR TRUST","office":"ngo","addr:city":"Pondicherry","addr:street":"Pillaiyar Koil Street, Vaithikuppam","addr:postcode":"605012","addr:housenumber":"No:10"}},{"type":"Feature","geometry":{"type":"Point","coordinates":[79.83019287697971,11.93840387126015]},"properties":{"@id":3939045870,"@type":"node","@version":2,"@changeset":36543181,"@uid":3499748,"@user":"mahdeekreamer","@timestamp":1452664508,"name":"Intach Heritage Centre","phone":"0091-413-2 225 991","office":"ngo","website":"http://www.intachpondicherry.org/","addr:city":"Puducherry","addr:street":"Rue Aurobindo","addr:postcode":"605001","addr:housenumber":"62"}},{"type":"Feature","geometry":{"type":"Point","coordinates":[79.83365225605667,11.938332935998304]},"properties":{"@id":3942856558,"@type":"node","@version":1,"@changeset":36542883,"@uid":3505318,"@user":"mbjesq","@timestamp":1452661047,"office":"ngo"}},{"type":"Feature","geometry":{"type":"Point","coordinates":[79.83204217627645,11.927310928903978]},"properties":{"@id":3942890998,"@type":"node","@version":2,"@changeset":45374631,"@uid":5084650,"@user":"woodennature","@timestamp":1485106634,"name":"Elegance - Reflection of Graneur","office":"ngo","addr:city":"Pondicherry","addr:street":"Rue Labourdonnais","addr:postcode":"605001"}},{"type":"Feature","geometry":{"type":"Point","coordinates":[79.83313182368875,11.927014874708334]},"properties":{"@id":3320550355,"@type":"node","@version":2,"@changeset":36543250,"@uid":3499771,"@user":"lolock","@timestamp":1452665097,"name":"Gratitude Heritage","phone":"0413 222 5029","office":"ngo","website":"gratitudeheritage.in","addr:city":"Pondicherry","tourism_1":"hotel","addr:street":"Rue Romain Rolland","addr:postcode":"605001","addr:housenumber":"52"}},{"type":"Feature","geometry":{"type":"Point","coordinates":[79.68763246200979,13.0820347172384]},"properties":{"@id":4749166707,"@type":"node","@version":1,"@changeset":47073423,"@uid":5339794,"@user":"bikash_1_2_3","@timestamp":1490201831,"name":"Victory Youth Association - VICYA","office":"ngo"}},{"type":"Feature","geometry":{"type":"Point","coordinates":[79.81804548762739,11.963295834430468]},"properties":{"@id":5398993690,"@type":"node","@version":1,"@changeset":56192924,"@uid":7394327,"@user":"howaboutmagic","@timestamp":1518115145,"addr:street":"muthumaariamman koil street,nezhavalar nagar","name":"Youth welfare association","office":"ngo"}},{"type":"Feature","geometry":{"type":"Point","coordinates":[79.8011801764369,12.013072472812752]},"properties":{"@id":3387524693,"@type":"node","@version":1,"@changeset":29305822,"@uid":190200,"@user":"froot","@timestamp":1425725446,"name":"Auroville Bamboo Centre","office":"ngo","addr:city":"Auroville","addr:street":"Kottakarai","addr:postcode":"605111"}},{"type":"Feature","geometry":{"type":"Point","coordinates":[80.25697164237499,13.019121314311079]},"properties":{"@id":1990726913,"@type":"node","@version":2,"@changeset":15759284,"@uid":1306,"@user":"PlaneMad","@timestamp":1366183859,"name":"Krishnamurthi Foundation of India","office":"ngo"}},{"type":"Feature","geometry":{"type":"Polygon","coordinates":[[[85.44008835218847,23.447248400054292],[85.44013663195074,23.44717465501776],[85.44082327745855,23.446948267495173],[85.44074272736907,23.446731645647176],[85.43996497057378,23.44703685396324],[85.44008835218847,23.447248400054292]]]},"properties":{"@id":371859477,"@type":"way","@version":1,"@changeset":34177468,"@uid":2456987,"@user":"Anurag Gupta","@timestamp":1442909342,"name":"Yuwa India Trust","office":"ngo","building":"yes","addr:city":"Hutup Ormanjhi PS"}},{"type":"Feature","geometry":{"type":"Polygon","coordinates":[[[88.39948698878288,22.51414847515042],[88.39955815114081,22.51414096436605],[88.39951154775918,22.513765811781752],[88.39947265572846,22.51376991562357],[88.39946796186268,22.51373197443978],[88.39935639873147,22.513743743950968],[88.39936067350209,22.51377851046172],[88.3993205241859,22.513782769165104],[88.39935589581728,22.51406755997766],[88.39943468570709,22.514059274880736],[88.39944239705801,22.514121142087788],[88.39948296546936,22.514116805964036],[88.39948698878288,22.51414847515042]]]},"properties":{"@id":359022915,"@type":"way","@version":2,"@changeset":41261223,"@uid":3954920,"@user":"Prosen_2s","@timestamp":1470408157,"name":"Jagadis Bose National Science Talent Search (JBNSTS)","office":"ngo","building":"yes","addr:city":"Kolkata","addr:street":"Rajdanda Main Road","addr:postcode":"700107","addr:housenumber":"1300"}},{"type":"Feature","geometry":{"type":"Polygon","coordinates":[[[88.26409083791077,27.03900264574689],[88.26413911767304,27.03895725404874],[88.26410424895585,27.038926271217903],[88.26420072466135,27.038830635004288],[88.26430273242295,27.038923807522565],[88.26437515206635,27.038861767176456],[88.2642410416156,27.038727906240638],[88.26400768943131,27.03893097463616],[88.26409083791077,27.03900264574689]]]},"properties":{"@id":350287830,"@type":"way","@version":1,"@changeset":31600261,"@uid":2894714,"@user":"uZalP","@timestamp":1433057995,"name":"Red Cross Soceity","office":"ngo","building":"yes"}},{"type":"Feature","geometry":{"type":"Polygon","coordinates":[[[92.8940686583519,22.53230704183065],[92.89409941993654,22.532227763124837],[92.89395198225975,22.532190601215817],[92.89393857121468,22.53228590600827],[92.8940686583519,22.53230704183065]]]},"properties":{"@id":439113643,"@type":"way","@version":1,"@changeset":41709228,"@uid":4149421,"@user":"Frankie Thianhlun","@timestamp":1472199943,"name":"Mizoram Journalist Association Office","office":"ngo","building":"yes","addr:city":"Lawngtlai","addr:street":"Electric Veng","addr:postcode":"796891","addr:housenumber":"Below DC Office"}}]}